CCSDS_OMM_VERS,COMMENT,CREATION_DATE,ORIGINATOR,OBJECT_NAME,OBJECT_ID,CENTER_NAME,REF_FRAME,TIME_SYSTEM,MEAN_ELEMENT_THEORY,EPOCH,MEAN_MOTION,ECCENTRICITY,INCLINATION,RA_OF_ASC_NODE,ARG_OF_PERICENTER,MEAN_ANOMALY,EPHEMERIS_TYPE,CLASSIFICATION_TYPE,NORAD_CAT_ID,ELEMENT_SET_NO,REV_AT_EPOCH,BSTAR,MEAN_MOTION_DOT,MEAN_MOTION_DDOT,SEMIMAJOR_AXIS,PERIOD,APOAPSIS,PERIAPSIS,OBJECT_TYPE,RCS_SIZE,COUNTRY_CODE,LAUNCH_DATE,SITE,DECAY_DATE,FILE,GP_ID,TLE_LINE0,TLE_LINE1,TLE_LINE2
"2.0","GENERATED VIA SPACE-TRACK.ORG API","2023-01-03T02:40:54","18 SPCS","ARIANE 1 DEB","1984-023G","EARTH","TEME","UTC","SGP4","2023-01-02T19:40:39.652032","2.59436974","0.68782730","8.8140","276.8713","44.8217","85.5382","0","U","26681","999","22790","0.00510600000000","0.00000361","0.0000000000000","22372.470","555.048","31382.730","605.939","DEBRIS","MEDIUM","ESA","1984-03-05","FRGUI","","3729873","222048647","0 ARIANE 1 DEB","1 26681U 84023G   23002.81990338  .00000361  00000-0  51060-2 0  9992","2 26681   8.8140 276.8713 6878273  44.8217  85.5382  2.59436974227907"
"2.0","GENERATED VIA SPACE-TRACK.ORG API","2023-01-02T23:36:14","18 SPCS","ARIANE 1 DEB","1985-056H","EARTH","TEME","UTC","SGP4","2023-01-02T13:01:11.149824","2.22736215","0.70900520","6.0099","75.0071","63.8706","8.7250","0","U","26683","999","18573","-0.00274500000000","-0.00000242","0.0000000000000","24767.069","646.505","35948.915","828.953","DEBRIS","MEDIUM","FR","1985-07-02","FRGUI","","3729691","222037311","0 ARIANE 1 DEB","1 26683U 85056H   23002.54249016 -.00000242  00000-0 -27450-2 0  9997","2 26683   6.0099  75.0071 7090052  63.8706   8.7250  2.22736215185730"
"2.0","GENERATED VIA SPACE-TRACK.ORG API","2023-01-01T17:55:23","18 SPCS","ARIANE 1 DEB","1985-056H","EARTH","TEME","UTC","SGP4","2023-01-01T04:12:53.713152","2.22736570","0.70900620","6.0077","75.4567","62.9496","352.7101","0","U","26683","999","8274","-0.00170450000000","-0.00000187","0.0000000000000","24767.043","646.504","35948.895","828.921","DEBRIS","MEDIUM","FR","1985-07-02","FRGUI","","3728759","221917181","0 ARIANE 1 DEB","1 26683U 85056H   23001.17562168 -.00000187  00000-0 -17045-2 0  9998","2 26683   6.0077  75.4567 7090062  62.9496 352.7101  2.22736570 82745"
"2.0","GENERATED VIA SPACE-TRACK.ORG API","2023-01-02T17:42:09","18 SPCS","ARIANE 1 DEB","1985-056H","EARTH","TEME","UTC","SGP4","2023-01-02T13:01:11.149824","2.22736215","0.70900520","6.0099","75.0071","63.8706","8.7250","0","U","26683","999","8277","-0.00274500000000","-0.00000242","0.0000000000000","24767.069","646.505","35948.915","828.953","DEBRIS","MEDIUM","FR","1985-07-02","FRGUI","","3729583","222015354","0 ARIANE 1 DEB","1 26683U 85056H   23002.54249016 -.00000242  00000-0 -27450-2 0  9997","2 26683   6.0099  75.0071 7090052  63.8706   8.7250  2.22736215 82770"
"2.0","GENERATED VIA SPACE-TRACK.ORG API","2023-01-03T02:40:54","18 SPCS","ARIANE 1 DEB","1985-056J","EARTH","TEME","UTC","SGP4","2023-01-02T16:49:34.908672","2.36218051","0.70636910","5.6494","214.0811","140.3219","350.0340","0","U","26684","999","20722","0.00267740000000","0.00000162","0.0000000000000","23815.505","609.606","34259.906","614.833","DEBRIS","MEDIUM","FR","1985-07-02","FRGUI","","3729873","222049150","0 ARIANE 1 DEB","1 26684U 85056J   23002.70109848  .00000162  00000-0  26774-2 0  9991","2 26684   5.6494 214.0811 7063691 140.3219 350.0340  2.36218051207221"
"2.0","GENERATED VIA SPACE-TRACK.ORG API","2023-01-02T17:42:09","18 SPCS","ARIANE 1 DEB","1985-056J","EARTH","TEME","UTC","SGP4","2023-01-02T03:58:13.661760","2.36217893","0.70636780","5.6487","214.2981","139.8976","254.5172","0","U","26684","999","20720","0.00291940000000","0.00000191","0.0000000000000","23815.515","609.607","34259.893","614.867","DEBRIS","MEDIUM","FR","1985-07-02","FRGUI","","3729583","222016106","0 ARIANE 1 DEB","1 26684U 85056J   23002.16543590  .00000191  00000-0  29194-2 0  9998","2 26684   5.6487 214.2981 7063678 139.8976 254.5172  2.36217893207203"
"2.0","GENERATED VIA SPACE-TRACK.ORG API","2023-01-02T08:06:14","18 SPCS","ARIANE 1 DEB","1985-056J","EARTH","TEME","UTC","SGP4","2023-01-02T03:58:13.661760","2.36217893","0.70636780","5.6487","214.2981","139.8976","254.5172","0","U","26684","999","20738","0.00291940000000","0.00000191","0.0000000000000","23815.515","609.607","34259.893","614.867","DEBRIS","MEDIUM","FR","1985-07-02","FRGUI","","3729217","221999703","0 ARIANE 1 DEB","1 26684U 85056J   23002.16543590  .00000191  00000-0  29194-2 0  9998","2 26684   5.6487 214.2981 7063678 139.8976 254.5172  2.36217893207382"
"2.0","GENERATED VIA SPACE-TRACK.ORG API","2023-01-02T02:38:49","18 SPCS","ARIANE 1 DEB","1985-056J","EARTH","TEME","UTC","SGP4","2023-01-01T16:40:15.917088","2.36217696","0.70636710","5.6481","214.4891","139.5243","214.1528","0","U","26684","999","20719","0.00296570000000","0.00000204","0.0000000000000","23815.528","609.607","34259.899","614.888","DEBRIS","MEDIUM","FR","1985-07-02","FRGUI","","3728952","221973803","0 ARIANE 1 DEB","1 26684U 85056J   23001.69462867  .00000204  00000-0  29657-2 0  9991","2 26684   5.6481 214.4891 7063671 139.5243 214.1528  2.36217696207192"
"2.0","GENERATED VIA SPACE-TRACK.ORG API","2023-01-01T17:55:23","18 SPCS","ARIANE 1 DEB","1985-056J","EARTH","TEME","UTC","SGP4","2023-01-01T14:42:00.645408","2.36217629","0.70636590","5.6479","214.5230","139.4584","144.3184","0","U","26684","999","20719","0.00301260000000","0.00000208","0.0000000000000","23815.533","609.607","34259.878","614.918","DEBRIS","MEDIUM","FR","1985-07-02","FRGUI","","3728759","221915943","0 ARIANE 1 DEB","1 26684U 85056J   23001.61250747  .00000208  00000-0  30126-2 0  9992","2 26684   5.6479 214.5230 7063659 139.4584 144.3184  2.36217629207198"
"2.0","GENERATED VIA SPACE-TRACK.ORG API","2023-01-02T01:36:13","18 SPCS","ARIANE 1 DEB","1985-056K","EARTH","TEME","UTC","SGP4","2023-01-01T10:19:45.073056","2.16255114","0.70305420","6.9487","151.6564","243.5305","30.5353","0","U","26685","999","17806","0.00000000000000","0.00000001","0.0000000000000","25259.471","665.880","36640.113","1122.559","DEBRIS","MEDIUM","FR","1985-07-02","FRGUI","","3728903","221965711","0 ARIANE 1 DEB","1 26685U 85056K   23001.43038279  .00000001  00000-0  00000+0 0  9993","2 26685   6.9487 151.6564 7030542 243.5305  30.5353  2.16255114178062"
"2.0","GENERATED VIA SPACE-TRACK.ORG API","2023-01-02T02:38:49","18 SPCS","ARIANE 1 DEB","1985-056K","EARTH","TEME","UTC","SGP4","2023-01-01T10:19:45.073056","2.16255114","0.70305420","6.9487","151.6564","243.5305","30.5353","0","U","26685","999","7347","0.00000000000000","0.00000001","0.0000000000000","25259.471","665.880","36640.113","1122.559","DEBRIS","MEDIUM","FR","1985-07-02","FRGUI","","3728952","221974055","0 ARIANE 1 DEB","1 26685U 85056K   23001.43038279  .00000001  00000-0  00000-0 0  9994","2 26685   6.9487 151.6564 7030542 243.5305  30.5353  2.16255114 73471"
"2.0","GENERATED VIA SPACE-TRACK.ORG API","2023-01-02T17:42:09","18 SPCS","ARIANE 1 DEB","1985-056K","EARTH","TEME","UTC","SGP4","2023-01-02T08:30:40.733568","2.16255036","0.70316240","6.9458","151.3422","244.1221","30.0688","0","U","26685","999","7349","0.00000000000000","0.00000009","0.0000000000000","25259.477","665.880","36642.857","1119.828","DEBRIS","MEDIUM","FR","1985-07-02","FRGUI","","3729583","222015846","0 ARIANE 1 DEB","1 26685U 85056K   23002.35463812  .00000009  00000-0  00000-0 0  9999","2 26685   6.9458 151.3422 7031624 244.1221  30.0688  2.16255036 73496"
"2.0","GENERATED VIA SPACE-TRACK.ORG API","2023-01-02T23:26:13","18 SPCS","ARIANE 1 DEB","1985-056K","EARTH","TEME","UTC","SGP4","2023-01-02T08:30:40.733568","2.16255036","0.70316240","6.9458","151.3422","244.1221","30.0688","0","U","26685","999","17808","0.00000000000000","0.00000009","0.0000000000000","25259.477","665.880","36642.857","1119.828","DEBRIS","MEDIUM","FR","1985-07-02","FRGUI","","3729685","222037268","0 ARIANE 1 DEB","1 26685U 85056K   23002.35463812  .00000009  00000-0  00000+0 0  9998","2 26685   6.9458 151.3422 7031624 244.1221  30.0688  2.16255036178087"
"2.0","GENERATED VIA SPACE-TRACK.ORG API","2023-01-02T17:42:09","18 SPCS","ARIANE 44L R/B","2001-005C","EARTH","TEME","UTC","SGP4","2023-01-02T04:29:06.455328","2.62406598","0.69869000","7.2689","330.0808","10.1845","358.5940","0","U","26696","999","19549","0.00206660000000","0.00003274","0.0000000000000","22203.359","548.767","31338.488","311.959","ROCKET BODY","LARGE","FR","2001-02-07","FRGUI","","3729583","222016346","0 ARIANE 44L R/B","1 26696U 01005C   23002.18688027  .00003274  00000-0  20666-2 0  9990","2 26696   7.2689 330.0808 6986900  10.1845 358.5940  2.62406598195496"
"2.0","GENERATED VIA SPACE-TRACK.ORG API","2023-01-02T06:26:13","18 SPCS","ARIANE 44L R/B","2001-005C","EARTH","TEME","UTC","SGP4","2023-01-01T19:20:24.653760","2.62404181","0.69868960","7.2699","330.2651","9.8212","358.6433","0","U","26696","999","19559","0.00186990000000","0.00002963","0.0000000000000","22203.495","548.772","31338.711","312.009","ROCKET BODY","LARGE","FR","2001-02-07","FRGUI","","3729115","221997044","0 ARIANE 44L R/B","1 26696U 01005C   23001.80584090  .00002963  00000-0  18699-2 0  9990","2 26696   7.2699 330.2651 6986896   9.8212 358.6433  2.62404181195597"
"2.0","GENERATED VIA SPACE-TRACK.ORG API","2023-01-01T17:55:23","18 SPCS","ARIANE 44L R/B","2001-005C","EARTH","TEME","UTC","SGP4","2023-01-01T10:11:42.544608","2.62401925","0.69868690","7.2709","330.4498","9.4574","358.6921","0","U","26696","999","19547","0.00180560000000","0.00002845","0.0000000000000","22203.622","548.776","31338.867","312.107","ROCKET BODY","LARGE","FR","2001-02-07","FRGUI","","3728759","221916694","0 ARIANE 44L R/B","1 26696U 01005C   23001.42479797  .00002845  00000-0  18056-2 0  9991","2 26696   7.2709 330.4498 6986869   9.4574 358.6921  2.62401925195479"
